STARLINK-1798
1 26779C 20074AS  21325.14688215  .00003285  00000-0  22007-3 0  3259
2 26779  53.0519 157.5659 0002028  80.4527 310.3150 15.06398409    13
